GPS BIIR-2  (PRN 13)    
1 24876U 97035A   16356.07381685 -.00000005  00000-0  00000+0 0  9995
2 24876  55.5945 234.1253 0038452 108.0756 252.4166  2.00561894142256
GPS BIIR-3  (PRN 11)    
1 25933U 99055A   16356.32405317 -.00000066  00000-0  00000+0 0  9998
2 25933  51.5111  85.4389 0164836  92.1578  17.7366  2.00560795126075
GPS BIIR-4  (PRN 20)    
1 26360U 00025A   16356.52628608  .00000074  00000-0  00000+0 0  9992
2 26360  53.0932 162.3014 0045252  86.7947 268.5091  2.00569922121771
GPS BIIR-5  (PRN 28)    
1 26407U 00040A   16356.32262646 -.00000069  00000-0  00000+0 0  9990
2 26407  56.6771 352.0816 0203280 268.9009 221.7997  2.00568371120447
GPS BIIR-6  (PRN 14)    
1 26605U 00071A   16356.42159950  .00000002  00000-0  00000+0 0  9994
2 26605  55.1650 231.9113 0088517 248.8827 220.2256  2.00570784118058
GPS BIIR-7  (PRN 18)    
1 26690U 01004A   16356.54766059  .00000076  00000-0  00000+0 0  9993
2 26690  53.0174 165.2533 0175707 254.4896  62.0369  2.00555949116457
GPS BIIR-8  (PRN 16)    
1 27663U 03005A   16356.12647935 -.00000069  00000-0  00000+0 0  9995
2 27663  56.7484 351.8182 0088228  20.3855  88.2623  2.00570734101806
GPS BIIR-9  (PRN 21)    
1 27704U 03010A   16356.42452821 -.00000026  00000-0  00000+0 0  9991
2 27704  53.7577 105.6059 0238230 260.8952  26.0153  2.00551745100616
GPS BIIR-10 (PRN 22)    
1 28129U 03058A   16355.77168507  .00000071  00000-0  00000-0 0  9997
2 28129  52.9015 165.2972 0075128 255.3725 103.7983  2.00566816 95289
GPS BIIR-11 (PRN 19)    
1 28190U 04009A   16356.21982942 -.00000090  00000-0  00000+0 0  9990
2 28190  55.9037  52.9692 0100364  50.6661 277.2199  2.00567716 93487
GPS BIIR-12 (PRN 23)    
1 28361U 04023A   16356.29959220  .00000009  00000-0  00000+0 0  9996
2 28361  54.1443 227.2084 0112703 216.5822  84.6866  2.00575686 91566
GPS BIIR-13 (PRN 02)    
1 28474U 04045A   16356.45685387 -.00000027  00000-0  00000+0 0  9994
2 28474  54.1417 105.0033 0165395 242.8375 172.2005  2.00560494 88936
GPS BIIRM-1 (PRN 17)    
1 28874U 05038A   16356.25756238 -.00000090  00000-0  00000+0 0  9993
2 28874  56.0650  50.2047 0117722 252.0464 120.4119  2.00578154 82330
GPS BIIRM-2 (PRN 31)    
1 29486U 06042A   16356.50308574 -.00000073  00000-0  00000+0 0  9994
2 29486  55.5135 289.3956 0086036 339.7505 135.4478  2.00570279 75053
GPS BIIRM-3 (PRN 12)    
1 29601U 06052A   16356.28949000 -.00000069  00000-0  00000+0 0  9999
2 29601  56.7202 350.7333 0060184  42.9798 317.5077  2.00571494 73961
GPS BIIRM-4 (PRN 15)    
1 32260U 07047A   16355.60536312  .00000008  00000-0  00000+0 0  9994
2 32260  53.2718 223.7430 0088239  30.2757 330.3055  2.00557771 67338
GPS BIIRM-5 (PRN 29)    
1 32384U 07062A   16356.56351741 -.00000090  00000-0  00000+0 0  9997
2 32384  56.1253  50.7623 0006294 327.8242 137.4145  2.00560926 66081
GPS BIIRM-6 (PRN 07)    
1 32711U 08012A   16356.51062584 -.00000073  00000-0  00000+0 0  9997
2 32711  55.2393 288.8072 0101834 211.4322 147.9711  2.00570245 64263
GPS BIIRM-8 (PRN 05)    
1 35752U 09043A   16356.45327250  .00000080  00000-0  00000+0 0  9994
2 35752  54.2363 166.7237 0047932  30.0326 314.5255  2.00565608 53845
GPS BIIF-1  (PRN 25)    
1 36585U 10022A   16356.55974039 -.00000070  00000-0  00000+0 0  9992
2 36585  56.0357 347.6642 0056820  41.2627 121.9301  2.00565956 48096
GPS BIIF-2  (PRN 01)    
1 37753U 11036A   16356.32245984 -.00000018  00000-0  00000+0 0  9993
2 37753  55.3530 107.8737 0059488  30.1828  51.3574  2.00560832 39774
GPS BIIF-3  (PRN 24)    
1 38833U 12053A   16356.19883617 -.00000072  00000-0  00000+0 0  9999
2 38833  54.2684 285.9131 0051362  21.5578 338.6745  2.00559023 30847
GPS BIIF-4  (PRN 27)    
1 39166U 13023A   16356.05489949 -.00000091  00000-0  00000+0 0  9993
2 39166  55.7743  47.2847 0040026  13.4181 346.7381  2.00565778 26370
GPS BIIF-5  (PRN 30)    
1 39533U 14008A   16356.05640009 -.00000072  00000-0  00000+0 0  9990
2 39533  54.4242 291.1858 0023687 184.7432 175.2471  2.00556139 20746
GPS BIIF-6  (PRN 06)    
1 39741U 14026A   16356.33839556 -.00000019  00000-0  00000+0 0  9990
2 39741  55.3414 107.3923 0006584 273.4931  86.4166  2.00573934 19021
GPS BIIF-7  (PRN 09)    
1 40105U 14045A   16356.42756346  .00000011  00000-0  00000+0 0  9993
2 40105  54.6659 227.0149 0006036 102.8424 257.2998  2.00557499 17470
GPS BIIF-8  (PRN 03)    
1 40294U 14068A   16356.29342225  .00000081  00000-0  00000+0 0  9996
2 40294  54.9810 167.5722 0002768  16.3217 343.6974  2.00577103 15693
GPS BIIF-9  (PRN 26)    
1 40534U 15013A   16355.43897118 -.00000074  00000-0  00000+0 0  9998
2 40534  54.9967 346.9854 0014882 340.6465  19.3099  2.00569119 12746
GPS BIIF-10  (PRN 08)   
1 40730U 15033A   16356.10238785 -.00000092  00000-0  00000+0 0  9992
2 40730  55.3098  47.0351 0024530 301.7318  58.0787  2.00577116 10514
GPS BIIF-11  (PRN 10)   
1 41019U 15062A   16356.15008801  .00000080  00000-0  00000+0 0  9990
2 41019  54.9922 167.3587 0020734 197.3315 162.6074  2.00563047  8337
GPS BIIF-12  (PRN 32)   
1 41328U 16007A   16355.73617791  .00000005  00000-0  00000+0 0  9997
2 41328  54.9261 227.1811 0007427 221.6616 138.3564  2.00563140  6381
